[{"OBJECT_NAME":"STARLINK-33755","OBJECT_ID":"2025-076L","EPOCH":"2026-03-09T23:14:14.599392","MEAN_MOTION":15.27596845,"ECCENTRICITY":0.00012433,"INCLINATION":43.0016,"RA_OF_ASC_NODE":319.988,"ARG_OF_PERICENTER":266.7952,"MEAN_ANOMALY":93.2757,"EPHEMERIS_TYPE":0,"CLASSIFICATION_TYPE":"U","NORAD_CAT_ID":63579,"ELEMENT_SET_NO":999,"REV_AT_EPOCH":5187,"BSTAR":0.0010946971,"MEAN_MOTION_DOT":0.0003,"MEAN_MOTION_DDOT":0},{"OBJECT_NAME":"FENGYUN 1C DEB","OBJECT_ID":"1999-025FBF","EPOCH":"2026-03-06T07:33:49.292640","MEAN_MOTION":15.04395515,"ECCENTRICITY":0.01189701,"INCLINATION":98.9505,"RA_OF_ASC_NODE":84.7158,"ARG_OF_PERICENTER":75.0888,"MEAN_ANOMALY":286.3472,"EPHEMERIS_TYPE":0,"CLASSIFICATION_TYPE":"U","NORAD_CAT_ID":47029,"ELEMENT_SET_NO":999,"REV_AT_EPOCH":4330,"BSTAR":0.0027080259,"MEAN_MOTION_DOT":0.00044409,"MEAN_MOTION_DDOT":0}]
